      2.10          N: GNSS NAV DATA                        RINEX VERSION / TYPE
fic2rin                                 09/30/2021 00:17:32 PGM / RUN BY / DATE
                                                            END OF HEADER
20 21  9 29  6  0  0.0 5.188966169953e-04-2.273736754432e-13 0.000000000000e+00
    7.600000000000e+01-5.925000000000e+01 4.955206404236e-09 3.458233799262e-01
   -3.166496753693e-06 5.525343003683e-03 6.765127182007e-06 5.153663293839e+03
    2.808000000000e+05 1.266598701477e-07 1.478722922471e+00 1.862645149231e-09
    9.395402779324e-01 2.393437500000e+02 2.989147611802e+00-8.353919402846e-09
    5.535944880039e-11 1.000000000000e+00 2.177000000000e+03 0.000000000000e+00
    2.400000000000e+00 0.000000000000e+00-8.381903171539e-09 7.600000000000e+01
    2.736000000000e+05 4.000000000000e+00
17 21  9 29  6  0  0.0 5.116867832839e-04 5.684341886081e-12 0.000000000000e+00
    5.800000000000e+01 3.534375000000e+01 4.119814463952e-09 1.441442877813e+00
    1.534819602966e-06 1.360150403343e-02 5.567446351051e-06 5.153672931671e+03
    2.808000000000e+05-8.009374141693e-08-4.045250174050e-01-3.315508365631e-07
    9.813205263160e-01 2.830312500000e+02-1.554598905136e+00-7.964260314838e-09
   -1.571494030463e-11 1.000000000000e+00 2.177000000000e+03 0.000000000000e+00
    3.400000000000e+00 0.000000000000e+00-1.117587089539e-08 5.800000000000e+01
    2.736000000000e+05 4.000000000000e+00
14 21  9 29  6  0  0.0-8.547212928534e-06-7.844391802792e-12 0.000000000000e+00
    1.200000000000e+01 4.987500000000e+01 4.661979904461e-09-2.226018831511e+00
    2.605840563774e-06 1.122237881646e-03 7.774680852890e-06 5.153645954132e+03
    2.808000000000e+05-1.303851604462e-08-1.470488204879e+00 3.725290298462e-09
    9.552192121658e-01 2.295312500000e+02 3.118428639024e+00-8.046763751438e-09
   -1.207193141583e-10 1.000000000000e+00 2.177000000000e+03 0.000000000000e+00
    2.400000000000e+00 0.000000000000e+00-7.916241884232e-09 2.680000000000e+02
    2.736000000000e+05 4.000000000000e+00
23 21  9 29  6  0  0.0 5.149189382792e-05-4.774847184308e-12 0.000000000000e+00
    1.200000000000e+02-6.509375000000e+01 4.173388124081e-09-1.266108368758e+00
   -3.289431333542e-06 1.728143193759e-03 8.443370461464e-06 5.153676853180e+03
    2.808000000000e+05-1.285225152969e-07 1.601762956839e+00 7.450580596924e-09
    9.653576718676e-01 2.196250000000e+02 2.694758485862e+00-7.807825227261e-09
    1.575065607805e-10 1.000000000000e+00 2.177000000000e+03 0.000000000000e+00
    2.400000000000e+00 0.000000000000e+00-8.381903171539e-09 8.880000000000e+02
    2.736000000000e+05 4.000000000000e+00
18 21  9 29  6  0  0.0 3.167558461428e-04-4.661160346586e-12 0.000000000000e+00
    1.050000000000e+02-5.134375000000e+01 4.305893643468e-09-5.346559459033e-01
   -2.769753336906e-06 1.975932391360e-03 5.049630999565e-06 5.153647415161e+03
    2.808000000000e+05 5.587935447693e-09 6.020748488913e-01-3.166496753693e-08
    9.694475651081e-01 2.882500000000e+02 2.970963080720e+00-8.071407635097e-09
   -1.103617398666e-10 1.000000000000e+00 2.177000000000e+03 0.000000000000e+00
    2.400000000000e+00 0.000000000000e+00-8.381903171539e-09 6.170000000000e+02
    2.736000000000e+05 4.000000000000e+00
28 21  9 29  6  0  0.0 4.921914078295e-04-7.275957614183e-12 0.000000000000e+00
    3.900000000000e+01 4.637500000000e+01 4.264106188567e-09 1.906434380976e+00
    2.326443791389e-06 1.746355870273e-02 7.446855306625e-06 5.153719289780e+03
    2.808000000000e+05 3.390014171600e-07-1.419157017860e+00-9.685754776001e-08
    9.709064221268e-01 2.382812500000e+02-1.332181565589e+00-7.651390139683e-09
   -1.667926618696e-10 1.000000000000e+00 2.177000000000e+03 0.000000000000e+00
    2.400000000000e+00 6.300000000000e+01-1.117587089539e-08 3.900000000000e+01
    2.736000000000e+05 4.000000000000e+00
 2 21  9 29  8  0  0.0-6.348737515509e-04-1.932676241267e-12 0.000000000000e+00
    8.300000000000e+01-2.621875000000e+01 4.671980321019e-09 4.694163271085e-01
   -1.464039087296e-06 2.030722342897e-02 4.863366484642e-06 5.153764881134e+03
    2.880000000000e+05-2.086162567139e-07 5.057840433870e-01-1.229345798492e-07
    9.642526508448e-01 2.941875000000e+02-1.490871368708e+00-8.591786453821e-09
   -9.893269237232e-11 1.000000000000e+00 2.177000000000e+03 0.000000000000e+00
    3.400000000000e+00 0.000000000000e+00-1.769512891769e-08 8.300000000000e+01
    2.808000000000e+05 4.000000000000e+00
 1 21  9 29  8  0  0.0 5.538696423173e-04-1.091393642128e-11 0.000000000000e+00
    4.300000000000e+01-4.840625000000e+01 4.156601710574e-09 2.137537470387e-01
   -2.406537532806e-06 1.106073544361e-02 4.623085260391e-06 5.153676929474e+03
    2.880000000000e+05-4.470348358154e-08 5.921412021093e-01 1.545995473862e-07
    9.857052414370e-01 3.018437500000e+02 8.890111547687e-01-8.177840639888e-09
   -1.171477368163e-10 1.000000000000e+00 2.177000000000e+03 0.000000000000e+00
    2.400000000000e+00 0.000000000000e+00 5.122274160385e-09 4.300000000000e+01
    2.808000000000e+05 4.000000000000e+00
 5 21  9 29  8  0  0.0-5.597993731499e-05-1.250555214938e-12 0.000000000000e+00
    3.200000000000e+01-6.425000000000e+01 4.503044712744e-09 2.828031771172e+00
   -3.397464752197e-06 6.094859330915e-03 7.206574082375e-06 5.153596103668e+03
    2.880000000000e+05 4.842877388000e-08 1.590152334879e+00-5.960464477539e-08
    9.574602066322e-01 2.388125000000e+02 9.999508582755e-01-7.937830642508e-09
    2.892977646988e-11 1.000000000000e+00 2.177000000000e+03 0.000000000000e+00
    2.400000000000e+00 0.000000000000e+00-1.117587089539e-08 3.200000000000e+01
    2.808000000000e+05 4.000000000000e+00
 3 21  9 29  8  0  0.0-3.063371405005e-04-1.375610736432e-11 0.000000000000e+00
    4.600000000000e+01-7.203125000000e+01 4.261248926693e-09-9.208718208648e-01
   -3.794208168983e-06 3.896434325725e-03 8.074566721916e-06 5.153765394211e+03
    2.880000000000e+05 1.862645149231e-08 1.628688903282e+00 1.061707735062e-07
    9.704838772575e-01 2.281562500000e+02 9.889184634634e-01-7.897114660810e-09
    4.214461263514e-11 1.000000000000e+00 2.177000000000e+03 0.000000000000e+00
    2.400000000000e+00 0.000000000000e+00 1.862645149231e-09 4.600000000000e+01
    2.808000000000e+05 4.000000000000e+00
 4 21  9 29  8  0  0.0-2.041133120656e-04 2.273736754432e-13 0.000000000000e+00
    2.090000000000e+02-1.593750000000e+01 4.506259132352e-09 2.006780844511e+00
   -7.543712854385e-07 1.408580108546e-03 8.111819624901e-06 5.153689121246e+03
    2.880000000000e+05-1.303851604462e-08 2.709826681055e+00-5.587935447693e-09
    9.610105303346e-01 2.243437500000e+02-3.078448357731e+00-7.870327830745e-09
    1.407201472733e-10 1.000000000000e+00 2.177000000000e+03 0.000000000000e+00
    2.400000000000e+00 0.000000000000e+00-4.190951585770e-09 7.210000000000e+02
    2.808000000000e+05 4.000000000000e+00
16 21  9 29  8  0  0.0-3.986032679677e-04-6.366462912410e-12 0.000000000000e+00
    4.400000000000e+01 7.003125000000e+01 4.169102231271e-09-2.960231264371e+00
    3.397464752197e-06 1.224963460118e-02 7.944181561470e-06 5.153768232346e+03
    2.880000000000e+05-4.097819328308e-08-1.422725050186e+00-2.179294824600e-07
    9.717874250412e-01 2.345625000000e+02 6.809229793124e-01-7.658890452101e-09
   -8.750364487804e-11 1.000000000000e+00 2.177000000000e+03 0.000000000000e+00
    2.400000000000e+00 0.000000000000e+00-1.024454832077e-08 4.400000000000e+01
    2.808000000000e+05 4.000000000000e+00
12 21  9 29  8  0  0.0-1.042257063091e-04-5.456968210638e-12 0.000000000000e+00
    2.700000000000e+01 5.271875000000e+01 4.324108687912e-09-1.125918323383e+00
    3.006309270859e-06 8.255162276328e-03 7.504597306252e-06 5.153676651001e+03
    2.880000000000e+05 4.097819328308e-08-1.441423971060e+00 1.993030309677e-07
    9.717694896655e-01 2.449375000000e+02 1.231569155250e+00-7.955331371484e-09
   -9.214669542259e-11 1.000000000000e+00 2.177000000000e+03 0.000000000000e+00
    2.400000000000e+00 0.000000000000e+00-1.257285475731e-08 2.700000000000e+01
    2.808000000000e+05 4.000000000000e+00
10 21  9 29  8  0  0.0-2.131890505552e-04-7.958078640513e-12 0.000000000000e+00
    9.800000000000e+01-6.409375000000e+01 4.124457514496e-09-1.741557521330e+00
   -3.360211849213e-06 6.970278685912e-03 8.149072527885e-06 5.153676279068e+03
    2.880000000000e+05-3.725290298462e-09 1.625852763019e+00-1.806765794754e-07
    9.703381779314e-01 2.286562500000e+02-2.586086131291e+00-7.692106121381e-09
    1.067901625246e-10 1.000000000000e+00 2.177000000000e+03 0.000000000000e+00
    2.400000000000e+00 0.000000000000e+00 2.328306436539e-09 9.800000000000e+01
    2.808000000000e+05 4.000000000000e+00
 9 21  9 29  8  0  0.0-3.614979796112e-04-2.273736754432e-13 0.000000000000e+00
    5.900000000000e+01-2.006250000000e+01 4.605548982459e-09 2.882535521335e+00
   -9.089708328247e-07 2.206619596109e-03 8.169561624527e-06 5.153699390411e+03
    2.880000000000e+05-9.313225746155e-09 2.658007132483e+00 1.490116119385e-08
    9.539026093011e-01 2.183750000000e+02 1.810925218453e+00-7.891757294797e-09
    1.632210845276e-10 1.000000000000e+00 2.177000000000e+03 0.000000000000e+00
    2.400000000000e+00 0.000000000000e+00 1.396983861923e-09 5.900000000000e+01
    2.808000000000e+05 4.000000000000e+00
 8 21  9 29  8  0  0.0-3.822427242994e-05-1.364242052659e-12 0.000000000000e+00
    7.800000000000e+01 5.375000000000e+01 4.504473343681e-09 2.546473397924e+00
    2.853572368622e-06 6.529466016218e-03 4.775822162628e-06 5.153661592484e+03
    2.880000000000e+05-1.713633537292e-07-4.843726807521e-01 2.980232238770e-08
    9.663344491029e-01 2.903125000000e+02 5.368923394924e-02-8.100337411567e-09
    8.500354073867e-11 1.000000000000e+00 2.177000000000e+03 0.000000000000e+00
    2.400000000000e+00 0.000000000000e+00 5.122274160385e-09 7.800000000000e+01
    2.808000000000e+05 4.000000000000e+00
